ONEWEB-0331             
1 49198U 21083N   25190.10963964 -.00000543  00000+0 -14112-2 0  9994
2 49198  87.9118  43.6135 0001488  81.3221 278.8080 13.18687137186077
ONEWEB-0333             
1 49199U 21083P   25190.11245546 -.00000228  00000+0 -65897-3 0  9992
2 49199  87.8957  28.4366 0001857  89.3068 270.8274 13.13470821187165
ONEWEB-0334             
1 49200U 21083Q   25189.88851257 -.00000248  00000+0 -64167-3 0  9990
2 49200  87.9270 342.8537 0002876 100.1027 260.0431 13.20770900192766
ONEWEB-0335             
1 49201U 21083R   25189.57414050 -.00000283  00000+0 -81021-3 0  9990
2 49201  87.8956  28.5323 0001630  88.6677 271.4639 13.13471577187104
ONEWEB-0336             
1 49202U 21083S   25189.92624305  .00000313  00000+0  82088-3 0  9992
2 49202  87.8957  28.4551 0001799  92.3535 267.7800 13.13470730185857
ONEWEB-0337             
1 49203U 21083T   25190.08862313  .00000237  00000+0  61302-3 0  9996
2 49203  87.8958  28.4223 0001696  82.3935 277.7387 13.13470304187179
ONEWEB-0338             
1 49204U 21083U   25189.93901523 -.00000152  00000+0 -40652-3 0  9999
2 49204  87.9276 342.8350 0002199  95.7687 264.3697 13.20770986191504
ONEWEB-0339             
1 49205U 21083V   25189.94486481  .00000002  00000+0 -30621-4 0  9991
2 49205  87.8955  28.4376 0001887  84.6122 275.5222 13.13470200185832
